{
  "type": "FeatureCollection",
  "features": [
    {
      "type": "Feature",
      "properties": {
        "norad_id": 33886,
        "name": "IRIDIUM 33 DEB",
        "group": "iridium-33-debris",
        "lat": -30.381354903681178,
        "lon": -110.07119078159633,
        "alt_km": 770.6418786317818,
        "timestamp": "2025-12-11T08:58:27.510018+00:00",
        "meta_object_name": "IRIDIUM 33 DEB",
        "meta_object_id": "1997-051BF",
        "meta_epoch": "2025-12-11T04:44:47.359968",
        "meta_mean_motion": 14.36048964,
        "meta_eccentricity": 0.0012214,
        "meta_inclination": 86.3829,
        "meta_ra_of_asc_node": 67.8777,
        "meta_arg_of_pericenter": 247.7882,
        "meta_mean_anomaly": 132.5086,
        "meta_ephemeris_type": 0,
        "meta_classification_type": "U",
        "meta_norad_cat_id": 33886,
        "meta_element_set_no": 999,
        "meta_rev_at_epoch": 88030,
        "meta_bstar": 0.00030161,
        "meta_mean_motion_dot": 8.97e-06,
        "meta_mean_motion_ddot": 0,
        "tle_line1": "1 33886U 97051BF  25345.19777037  .00000897  00000+0  30161-3 0  9997",
        "tle_line2": "2 33886  86.3829  67.8777 0012214 247.7882 132.5086 14.36048964880305"
      },
      "geometry": {
        "type": "Point",
        "coordinates": [
          -110.07119078159633,
          -30.381354903681178
        ]
      }
    },
    {
      "type": "Feature",
      "properties": {
        "norad_id": 33887,
        "name": "IRIDIUM 33 DEB",
        "group": "iridium-33-debris",
        "lat": 38.92972767024759,
        "lon": -179.0115254410919,
        "alt_km": 764.9589736597063,
        "timestamp": "2025-12-11T08:58:27.510029+00:00",
        "meta_object_name": "IRIDIUM 33 DEB",
        "meta_object_id": "1997-051BG",
        "meta_epoch": "2025-12-11T01:55:48.688032",
        "meta_mean_motion": 14.37218579,
        "meta_eccentricity": 0.0004312,
        "meta_inclination": 86.3045,
        "meta_ra_of_asc_node": 4.1074,
        "meta_arg_of_pericenter": 234.0797,
        "meta_mean_anomaly": 189.2272,
        "meta_ephemeris_type": 0,
        "meta_classification_type": "U",
        "meta_norad_cat_id": 33887,
        "meta_element_set_no": 999,
        "meta_rev_at_epoch": 88141,
        "meta_bstar": 0.00021085,
        "meta_mean_motion_dot": 6.47e-06,
        "meta_mean_motion_ddot": 0,
        "tle_line1": "1 33887U 97051BG  25345.08042463  .00000647  00000+0  21085-3 0  9992",
        "tle_line2": "2 33887  86.3045   4.1074 0004312 234.0797 189.2272 14.37218579881415"
      },
      "geometry": {
        "type": "Point",
        "coordinates": [
          -179.0115254410919,
          38.92972767024759
        ]
      }
    },
    {
      "type": "Feature",
      "properties": {
        "norad_id": 33953,
        "name": "IRIDIUM 33 DEB",
        "group": "iridium-33-debris",
        "lat": -85.69951926504898,
        "lon": -68.3902058470006,
        "alt_km": 728.1702973101592,
        "timestamp": "2025-12-11T08:58:27.510040+00:00",
        "meta_object_name": "IRIDIUM 33 DEB",
        "meta_object_id": "1997-051BN",
        "meta_epoch": "2025-12-11T04:34:53.054112",
        "meta_mean_motion": 14.55298584,
        "meta_eccentricity": 0.0018424,
        "meta_inclination": 86.384,
        "meta_ra_of_asc_node": 54.4512,
        "meta_arg_of_pericenter": 107.5476,
        "meta_mean_anomaly": 281.7204,
        "meta_ephemeris_type": 0,
        "meta_classification_type": "U",
        "meta_norad_cat_id": 33953,
        "meta_element_set_no": 999,
        "meta_rev_at_epoch": 88281,
        "meta_bstar": 0.0018237,
        "meta_mean_motion_dot": 7.943e-05,
        "meta_mean_motion_ddot": 0,
        "tle_line1": "1 33953U 97051BN  25345.19089183  .00007943  00000+0  18237-2 0  9998",
        "tle_line2": "2 33953  86.3840  54.4512 0018424 107.5476 281.7204 14.55298584882816"
      },
      "geometry": {
        "type": "Point",
        "coordinates": [
          -68.3902058470006,
          -85.69951926504898
        ]
      }
    },
    {
      "type": "Feature",
      "properties": {
        "norad_id": 33960,
        "name": "IRIDIUM 33 DEB",
        "group": "iridium-33-debris",
        "lat": -74.26017628366806,
        "lon": -83.2875337060141,
        "alt_km": 624.7210871084471,
        "timestamp": "2025-12-11T08:58:27.510051+00:00",
        "meta_object_name": "IRIDIUM 33 DEB",
        "meta_object_id": "1997-051BV",
        "meta_epoch": "2025-12-11T02:56:14.946144",
        "meta_mean_motion": 14.85043606,
        "meta_eccentricity": 0.000749,
        "meta_inclination": 86.253,
        "meta_ra_of_asc_node": 290.277,
        "meta_arg_of_pericenter": 64.8311,
        "meta_mean_anomaly": 316.6965,
        "meta_ephemeris_type": 0,
        "meta_classification_type": "U",
        "meta_norad_cat_id": 33960,
        "meta_element_set_no": 999,
        "meta_rev_at_epoch": 88843,
        "meta_bstar": 0.0048513,
        "meta_mean_motion_dot": 0.00041654,
        "meta_mean_motion_ddot": 0,
        "tle_line1": "1 33960U 97051BV  25345.12239521  .00041654  00000+0  48513-2 0  9999",
        "tle_line2": "2 33960  86.2530 290.2770 0007490  64.8311 316.6965 14.85043606888431"
      },
      "geometry": {
        "type": "Point",
        "coordinates": [
          -83.2875337060141,
          -74.26017628366806
        ]
      }
    },
    {
      "type": "Feature",
      "properties": {
        "norad_id": 33966,
        "name": "IRIDIUM 33 DEB",
        "group": "iridium-33-debris",
        "lat": 61.42432420112507,
        "lon": 53.26514686594414,
        "alt_km": 724.4961435111354,
        "timestamp": "2025-12-11T08:58:27.510062+00:00",
        "meta_object_name": "IRIDIUM 33 DEB",
        "meta_object_id": "1997-051CB",
        "meta_epoch": "2025-12-11T05:39:53.110368",
        "meta_mean_motion": 14.49584048,
        "meta_eccentricity": 0.0007232,
        "meta_inclination": 86.3922,
        "meta_ra_of_asc_node": 46.6724,
        "meta_arg_of_pericenter": 193.2302,
        "meta_mean_anomaly": 229.3577,
        "meta_ephemeris_type": 0,
        "meta_classification_type": "U",
        "meta_norad_cat_id": 33966,
        "meta_element_set_no": 999,
        "meta_rev_at_epoch": 88420,
        "meta_bstar": 0.0008231,
        "meta_mean_motion_dot": 3.179e-05,
        "meta_mean_motion_ddot": 0,
        "tle_line1": "1 33966U 97051CB  25345.23603137  .00003179  00000+0  82310-3 0  9999",
        "tle_line2": "2 33966  86.3922  46.6724 0007232 193.2302 229.3577 14.49584048884206"
      },
      "geometry": {
        "type": "Point",
        "coordinates": [
          53.26514686594414,
          61.42432420112507
        ]
      }
    },
    {
      "type": "Feature",
      "properties": {
        "norad_id": 34071,
        "name": "IRIDIUM 33 DEB",
        "group": "iridium-33-debris",
        "lat": 50.985190608746244,
        "lon": -166.10204128092104,
        "alt_km": 716.1146036572927,
        "timestamp": "2025-12-11T08:58:27.510072+00:00",
        "meta_object_name": "IRIDIUM 33 DEB",
        "meta_object_id": "1997-051CE",
        "meta_epoch": "2025-12-11T03:24:43.710048",
        "meta_mean_motion": 14.49452844,
        "meta_eccentricity": 0.0009903,
        "meta_inclination": 86.3458,
        "meta_ra_of_asc_node": 18.5226,
        "meta_arg_of_pericenter": 111.9344,
        "meta_mean_anomaly": 248.2914,
        "meta_ephemeris_type": 0,
        "meta_classification_type": "U",
        "meta_norad_cat_id": 34071,
        "meta_element_set_no": 999,
        "meta_rev_at_epoch": 88311,
        "meta_bstar": 0.00086512,
        "meta_mean_motion_dot": 3.332e-05,
        "meta_mean_motion_ddot": 0,
        "tle_line1": "1 34071U 97051CE  25345.14217257  .00003332  00000+0  86512-3 0  9990",
        "tle_line2": "2 34071  86.3458  18.5226 0009903 111.9344 248.2914 14.49452844883115"
      },
      "geometry": {
        "type": "Point",
        "coordinates": [
          -166.10204128092104,
          50.985190608746244
        ]
      }
    },
    {
      "type": "Feature",
      "properties": {
        "norad_id": 34077,
        "name": "IRIDIUM 33 DEB",
        "group": "iridium-33-debris",
        "lat": -75.24435264874036,
        "lon": -114.00652583001319,
        "alt_km": 691.3427628890913,
        "timestamp": "2025-12-11T08:58:27.510082+00:00",
        "meta_object_name": "IRIDIUM 33 DEB",
        "meta_object_id": "1997-051CL",
        "meta_epoch": "2025-12-11T04:48:57.780864",
        "meta_mean_motion": 14.64803377,
        "meta_eccentricity": 0.0010385,
        "meta_inclination": 86.3859,
        "meta_ra_of_asc_node": 52.1851,
        "meta_arg_of_pericenter": 44.5154,
        "meta_mean_anomaly": 18.137,
        "meta_ephemeris_type": 0,
        "meta_classification_type": "U",
        "meta_norad_cat_id": 34077,
        "meta_element_set_no": 999,
        "meta_rev_at_epoch": 88310,
        "meta_bstar": 0.0023199,
        "meta_mean_motion_dot": 0.00012414,
        "meta_mean_motion_ddot": 0,
        "tle_line1": "1 34077U 97051CL  25345.20066876  .00012414  00000+0  23199-2 0  9994",
        "tle_line2": "2 34077  86.3859  52.1851 0010385  44.5154  18.1370 14.64803377883107"
      },
      "geometry": {
        "type": "Point",
        "coordinates": [
          -114.00652583001319,
          -75.24435264874036
        ]
      }
    }
  ]
}